NORAD_CAT_ID,OBJECT_NAME,OBJECT_TYPE,EPOCH,MEAN_MOTION,ECCENTRICITY,INCLINATION,RA_OF_ASC_NODE,ARG_OF_PERICENTER,MEAN_ANOMALY,BSTAR,MEAN_MOTION_DOT,MEAN_MOTION_DDOT,TLE_LINE0,TLE_LINE1,TLE_LINE2,SEMIMAJOR_AXIS,PERIOD,APOGEE,PERIGEE,DECAYED
52266.0,STARLINK-3739,PAYLOAD,2022-04-25 18:00:00,15.81409586,0.0001243,53.2178,354.8428,67.5379,139.694,-0.0047893,-0.00876933,0.0,0 STARLINK-3739,1 52266U 22041F   22115.75001157 -.00876933  00000-0 -47893-2 0  9998,2 52266  53.2178 354.8428 0001243  67.5379 139.6940 15.81409586  1875,6704.590999999999,91.058,327.289,325.622,0.0
52266.0,STARLINK-3739,PAYLOAD,2022-04-26 14:00:01,15.7983581,0.0001116,53.2173,350.6725,72.2141,199.6846,-0.0051471,-0.00876089,0.0,0 STARLINK-3739,1 52266U 22041F   22116.58335648 -.00876089  00000-0 -51471-2 0  9994,2 52266  53.2173 350.6725 0001116  72.2141 199.6846 15.79835810  2000,6709.042,91.149,331.656,330.159,0.0
52266.0,STARLINK-3739,PAYLOAD,2022-04-26 22:00:00,15.79208376,0.0001001,53.2175,349.0097,83.3089,285.0387,-0.0053148999999999,-0.0087865,0.0,0 STARLINK-3739,1 52266U 22041F   22116.91667824 -.00878650  00000-0 -53149-2 0  9995,2 52266  53.2175 349.0097 0001001  83.3089 285.0387 15.79208376  1474,6710.819,91.185,333.356,332.0130000000001,0.0
52266.0,STARLINK-3739,PAYLOAD,2022-04-27 12:00:00,15.78104535,0.0001067,53.2174,346.0977,64.7025,20.7321,-0.0055588999999999,-0.00874417,0.0,0 STARLINK-3739,1 52266U 22041F   22117.50001157 -.00874417  00000-0 -55589-2 0  9999,2 52266  53.2174 346.0977 0001067  64.7025  20.7321 15.78104535  2140,6713.948,91.249,336.53,335.097,0.0
52266.0,STARLINK-3739,PAYLOAD,2022-04-27 14:00:01,15.77948882,0.0001205,53.2174,345.6821,73.2556,125.9242,-0.0056135,-0.00876625,0.0,0 STARLINK-3739,1 52266U 22041F   22117.58335648 -.00876625  00000-0 -56135-2 0  9993,2 52266  53.2174 345.6821 0001205  73.2556 125.9242 15.77948882  1577,6714.39,91.258,337.064,335.446,0.0
52266.0,STARLINK-3739,PAYLOAD,2022-04-28 04:00:01,15.76848486,0.0001074,53.2172,342.7796,80.1305,193.4855,-0.0059009,-0.00876938,0.0,0 STARLINK-3739,1 52266U 22041F   22118.16668981 -.00876938  00000-0 -59009-2 0  9997,2 52266  53.2172 342.7796 0001074  80.1305 193.4855 15.76848486  2251,6717.513000000001,91.321,340.1,338.657,0.0
52266.0,STARLINK-3739,PAYLOAD,2022-04-28 14:00:01,15.76060506,0.0001158,53.2174,340.7056,68.0198,51.5701,-0.0060963,-0.00874956,0.0,0 STARLINK-3739,1 52266U 22041F   22118.58334491 -.00874956  00000-0 -60963-2 0  9998,2 52266  53.2174 340.7056 0001158  68.0198  51.5701 15.76060506  1733,6719.752,91.367,342.395,340.839,0.0
52266.0,STARLINK-3739,PAYLOAD,2022-04-29 04:00:00,15.74960083,0.000121,53.2172,337.811,70.5544,119.5022,-0.0064132,-0.00876619,0.0,0 STARLINK-3739,1 52266U 22041F   22119.16667824 -.00876619  00000-0 -64132-2 0  9992,2 52266  53.2172 337.8110 0001210  70.5544 119.5022 15.74960083  2404,6722.882,91.431,345.56,343.93300000000005,0.0
52266.0,STARLINK-3739,PAYLOAD,2022-04-29 14:00:01,15.74172351,0.0001027,53.2176,335.7432,70.7787,322.4814,-0.0066256,-0.00875062,0.0,0 STARLINK-3739,1 52266U 22041F   22119.58334491 -.00875062  00000-0 -66256-2 0  9999,2 52266  53.2176 335.7432 0001027  70.7787 322.4814 15.74172351  1898,6725.124,91.477,347.68,346.2990000000001,0.0
52266.0,STARLINK-3739,PAYLOAD,2022-04-29 20:00:01,15.73559082,0.0001088,53.2174,334.5063,73.2876,297.351,-0.0036195,-0.00487675,0.0,0 STARLINK-3739,1 52266U 22041F   22119.83334491 -.00487675  00000-0 -36195-2 0  9995,2 52266  53.2174 334.5063 0001088  73.2876 297.3510 15.73559082  2519,6726.871999999999,91.512,349.468,348.005,0.0
52266.0,STARLINK-3739,PAYLOAD,2022-04-29 22:00:00,15.73358488,0.0001123,53.2174,334.0941,62.9316,60.0658,-0.0016908,-0.0023303,0.0,0 STARLINK-3739,1 52266U 22041F   22119.91667824 -.00233030  00000-0 -16908-2 0  9997,2 52266  53.2174 334.0941 0001123  62.9316  60.0658 15.73358488  1944,6727.443,91.524,350.064,348.55300000000005,0.0
52266.0,STARLINK-3739,PAYLOAD,2022-04-30 04:00:00,15.73206326,0.0001061,53.2171,332.8563,73.3157,26.462,-2.5054e-05,-4.135e-05,0.0,0 STARLINK-3739,1 52266U 22041F   22120.16667824 -.00004135  00000-0 -25054-4 0  9992,2 52266  53.2171 332.8563 0001061  73.3157  26.4620 15.73206326  2564,6727.877,91.533,350.456,349.028,0.0
52266.0,STARLINK-3739,PAYLOAD,2022-04-30 12:00:00,15.731868300000002,4.9e-05,53.2146,331.2036,49.0027,139.7151,0.0007967,0.00112638,0.0,0 STARLINK-3739,1 52266U 22041F   22120.50001157  .00112638  00000-0  79670-3 0  9999,2 52266  53.2146 331.2036 0000490  49.0027 139.7151 15.73186830  2615,6727.933000000001,91.534,350.12699999999984,349.468,0.0
52266.0,STARLINK-3739,PAYLOAD,2022-04-30 14:00:01,15.73215226,5.34e-05,53.2152,330.7912,53.9216,247.0242,0.00064731,0.00091277,0.0,0 STARLINK-3739,1 52266U 22041F   22120.58334491  .00091277  00000-0  64731-3 0  9994,2 52266  53.2152 330.7912 0000534  53.9216 247.0242 15.73215226  2056,6727.852,91.532,350.076,349.357,0.0
52266.0,STARLINK-3739,PAYLOAD,2022-04-30 22:00:00,15.73315642,8.87e-05,53.2153,329.1437,41.1606,348.7941,-0.00036545,-0.00051845,0.0,0 STARLINK-3739,1 52266U 22041F   22120.91667824 -.00051845  00000-0 -36545-3 0  9991,2 52266  53.2153 329.1437 0000887  41.1606 348.7941 15.73315642  2108,6727.565,91.526,350.027,348.834,0.0
52266.0,STARLINK-3739,PAYLOAD,2022-05-01 06:00:00,15.73301215,0.0001059,53.2149,327.4926,53.2346,65.7593,-0.0009578,-0.00133501,0.0,0 STARLINK-3739,1 52266U 22041F   22121.25001157 -.00133501  00000-0 -95780-3 0  9996,2 52266  53.2149 327.4926 0001059  53.2346  65.7593 15.73301215  2733,6727.607,91.527,350.184,348.759,0.0
52266.0,STARLINK-3739,PAYLOAD,2022-05-01 14:00:01,15.73196984,0.0001261,53.215,325.8422,71.1444,136.8148,-0.00056901,-0.00079713,0.0,0 STARLINK-3739,1 52266U 22041F   22121.58334491 -.00079713  00000-0 -56901-3 0  9998,2 52266  53.2150 325.8422 0001261  71.1444 136.8148 15.73196984  2204,6727.904,91.533,350.617,348.92,0.0
52266.0,STARLINK-3739,PAYLOAD,2022-05-01 22:00:01,15.73098617,0.0001365,53.2147,324.1947,59.0033,237.9277,0.0002641,0.00036445,0.0,0 STARLINK-3739,1 52266U 22041F   22121.91668981  .00036445  00000-0  26410-3 0  9994,2 52266  53.2147 324.1947 0001365  59.0033 237.9277 15.73098617  2264,6728.184,91.539,350.968,349.131,0.0
52266.0,STARLINK-3739,PAYLOAD,2022-05-02 04:00:00,15.73140114,0.0001198,53.2143,322.9569,55.567,217.9166,0.00017159,0.00023467,0.0,0 STARLINK-3739,1 52266U 22041F   22122.16667824  .00023467  00000-0  17159-3 0  9997,2 52266  53.2143 322.9569 0001198  55.5670 217.9166 15.73140114  2881,6728.066,91.537,350.737,349.125,0.0
52266.0,STARLINK-3739,PAYLOAD,2022-05-02 14:00:01,15.73168681,0.0001147,53.215,320.8936,66.1795,48.3768,0.00039678,0.00055358,0.0,0 STARLINK-3739,1 52266U 22041F   22122.58334491  .00055358  00000-0  39678-3 0  9998,2 52266  53.2150 320.8936 0001147  66.1795  48.3768 15.73168681  2360,6727.984,91.535,350.621,349.07800000000015,0.0
52266.0,STARLINK-3739,PAYLOAD,2022-05-02 20:00:01,15.73206021,0.0001268,53.2147,319.6582,54.255,36.9962,0.00028064,0.00038959,0.0,0 STARLINK-3739,1 52266U 22041F   22122.83334491  .00038959  00000-0  28064-3 0  9991,2 52266  53.2147 319.6582 0001268  54.2550  36.9962 15.73206021  2988,6727.878000000002,91.533,350.596,348.89,0.0
52266.0,STARLINK-3739,PAYLOAD,2022-05-02 22:00:01,15.73199853,0.0001315,53.2151,319.2461,51.7062,151.8491,0.00050173,0.00070386,0.0,0 STARLINK-3739,1 52266U 22041F   22122.91668981  .00070386  00000-0  50173-3 0  9990,2 52266  53.2151 319.2461 0001315  51.7062 151.8491 15.73199853  2425,6727.896,91.533,350.645,348.876,0.0
52266.0,STARLINK-3739,PAYLOAD,2022-05-03 12:00:00,15.73217541,0.0001224,53.2148,316.3569,62.7474,206.4284,0.00038741,0.00054142,0.0,0 STARLINK-3739,1 52266U 22041F   22123.50001157  .00054142  00000-0  38741-3 0  9991,2 52266  53.2148 316.3569 0001224  62.7474 206.4284 15.73217541  3092,6727.845,91.532,350.534,348.88699999999994,0.0
52266.0,STARLINK-3739,PAYLOAD,2022-05-03 14:00:01,15.73263281,0.0001232,53.2149,315.9449,60.228,321.1764,-0.00023345,-0.00033342,0.0,0 STARLINK-3739,1 52266U 22041F   22123.58334491 -.00033342  00000-0 -23345-3 0  9994,2 52266  53.2149 315.9449 0001232  60.2280 321.1764 15.73263281  2529,6727.715,91.529,350.409,348.751,0.0
52266.0,STARLINK-3739,PAYLOAD,2022-05-03 20:00:01,15.73232677,0.0001262,53.2145,314.7093,50.3047,307.8549,-0.00010226,-0.00014966,0.0,0 STARLINK-3739,1 52266U 22041F   22123.83334491 -.00014966  00000-0 -10226-3 0  9997,2 52266  53.2145 314.7093 0001262  50.3047 307.8549 15.73232677  3147,6727.802,91.531,350.516,348.8180000000001,0.0
52266.0,STARLINK-3739,PAYLOAD,2022-05-03 22:00:00,15.73186971,0.0001240999999999,53.2146,314.2973,45.7916,64.6224,0.00061241,0.00086165,0.0,0 STARLINK-3739,1 52266U 22041F   22123.91667824  .00086165  00000-0  61241-3 0  9996,2 52266  53.2146 314.2973 0001241  45.7916  64.6224 15.73186971  2580,6727.932,91.534,350.63199999999995,348.962,0.0
52266.0,STARLINK-3739,PAYLOAD,2022-05-04 12:00:00,15.73201814,0.0001166,53.2147,311.4078,58.9226,117.1688,0.00047343,0.00066354,0.0,0 STARLINK-3739,1 52266U 22041F   22124.50001157  .00066354  00000-0  47343-3 0  9998,2 52266  53.2147 311.4078 0001166  58.9226 117.1688 15.73201814  3248,6727.89,91.533,350.539,348.971,0.0
52266.0,STARLINK-3739,PAYLOAD,2022-05-04 14:00:01,15.73247306,0.0001177,53.2148,310.9959,56.3105,232.0059,-0.00012961,-0.00018806,0.0,0 STARLINK-3739,1 52266U 22041F   22124.58334491 -.00018806  00000-0 -12961-3 0  9995,2 52266  53.2148 310.9959 0001177  56.3105 232.0059 15.73247306  2683,6727.76,91.53,350.417,348.833,0.0
52266.0,STARLINK-3739,PAYLOAD,2022-05-04 22:00:01,15.73222913,0.0001496999999999,53.2149,309.3481,49.6336,327.7635,3.0183e-05,3.622e-05,0.0,0 STARLINK-3739,1 52266U 22041F   22124.91668981  .00003622  00000-0  30183-4 0  9991,2 52266  53.2149 309.3481 0001497  49.6336 327.7635 15.73222913  2737,6727.83,91.532,350.702,348.68800000000016,0.0
